{"type": "FeatureCollection", "features": [ {"type": "Feature", "properties": {"norad_id": 30545, "name": "FENGYUN 1C DEB", "group": "fengyun-1c-debris", "lat": -35.34457366592244, "lon": 14.094367921933834, "alt_km": 1495.0585171423108, "timestamp": "2025-12-14T14:39:29.647682+00:00", "meta": {"OBJECT_NAME": "FENGYUN 1C DEB", "OBJECT_ID": "1999-025AKK", "EPOCH": "2025-12-10T13:12:25.242624", "MEAN_MOTION": 13.20779599, "ECCENTRICITY": 0.0472742, "INCLINATION": 98.999, "RA_OF_ASC_NODE": 197.0453, "ARG_OF_PERICENTER": 16.2017, "MEAN_ANOMALY": 345.365, "EPHEMERIS_TYPE": 0, "CLASSIFICATION_TYPE": "U", "NORAD_CAT_ID": 30545, "ELEMENT_SET_NO": 999, "REV_AT_EPOCH": 90901, "BSTAR": 0.00075506, "MEAN_MOTION_DOT": 5.17e-06, "MEAN_MOTION_DDOT": 0}, "tle": {"line1": "1 30545U 99025AKK 25344.55029216  .00000517  00000+0  75506-3 0  9998", "line2": "2 30545  98.9990 197.0453 0472742  16.2017 345.3650 13.20779599909012"}}, "geometry": {"type": "Point", "coordinates": [14.094367921933834, -35.34457366592244]}}, {"type": "Feature", "properties": {"norad_id": 30546, "name": "FENGYUN 1C DEB", "group": "fengyun-1c-debris", "lat": 16.583012593762632, "lon": -157.82195465096808, "alt_km": 656.3106826253934, "timestamp": "2025-12-14T14:39:29.647693+00:00", "meta": {"OBJECT_NAME": "FENGYUN 1C DEB", "OBJECT_ID": "1999-025AKL", "EPOCH": "2025-12-13T20:52:28.178112", "MEAN_MOTION": 14.87179419, "ECCENTRICITY": 0.00925549, "INCLINATION": 98.9089, "RA_OF_ASC_NODE": 204.0247, "ARG_OF_PERICENTER": 158.8777, "MEAN_ANOMALY": 213.9206, "EPHEMERIS_TYPE": 0, "CLASSIFICATION_TYPE": "U", "NORAD_CAT_ID": 30546, "ELEMENT_SET_NO": 999, "REV_AT_EPOCH": 474, "BSTAR": 0.00093073645, "MEAN_MOTION_DOT": 8.992e-05, "MEAN_MOTION_DDOT": 0}, "tle": {"line1": "1 30546U 99025AKL 25347.86977058  .00008992  00000+0  93074-3 0  9997", "line2": "2 30546  98.9089 204.0247 0092554 158.8777 213.9206 14.87179419  4749"}}, "geometry": {"type": "Point", "coordinates": [-157.82195465096808, 16.583012593762632]}}, {"type": "Feature", "properties": {"norad_id": 30547, "name": "FENGYUN 1C DEB", "group": "fengyun-1c-debris", "lat": 60.68935455442261, "lon": 27.885859034178218, "alt_km": 763.9815781530369, "timestamp": "2025-12-14T14:39:29.647703+00:00", "meta": {"OBJECT_NAME": "FENGYUN 1C DEB", "OBJECT_ID": "1999-025AKM", "EPOCH": "2025-12-13T19:49:43.739616", "MEAN_MOTION": 14.3775295, "ECCENTRICITY": 0.00951953, "INCLINATION": 98.9021, "RA_OF_ASC_NODE": 190.8625, "ARG_OF_PERICENTER": 214.205, "MEAN_ANOMALY": 166.3754, "EPHEMERIS_TYPE": 0, "CLASSIFICATION_TYPE": "U", "NORAD_CAT_ID": 30547, "ELEMENT_SET_NO": 999, "REV_AT_EPOCH": 98738, "BSTAR": 0.00038589598, "MEAN_MOTION_DOT": 1.174e-05, "MEAN_MOTION_DDOT": 0}, "tle": {"line1": "1 30547U 99025AKM 25347.82620069  .00001174  00000+0  38590-3 0  9998", "line2": "2 30547  98.9021 190.8625 0095195 214.2050 166.3754 14.37752950987384"}}, "geometry": {"type": "Point", "coordinates": [27.885859034178218, 60.68935455442261]}}, {"type": "Feature", "properties": {"norad_id": 30548, "name": "FENGYUN 1C DEB", "group": "fengyun-1c-debris", "lat": -57.59255174985684, "lon": -98.1308636096817, "alt_km": 765.8597361560132, "timestamp": "2025-12-14T14:39:29.647713+00:00", "meta": {"OBJECT_NAME": "FENGYUN 1C DEB", "OBJECT_ID": "1999-025AKN", "EPOCH": "2025-12-10T12:13:24.269952", "MEAN_MOTION": 14.26844945, "ECCENTRICITY": 0.00687565, "INCLINATION": 99.6812, "RA_OF_ASC_NODE": 241.7363, "ARG_OF_PERICENTER": 341.7334, "MEAN_ANOMALY": 143.2043, "EPHEMERIS_TYPE": 0, "CLASSIFICATION_TYPE": "U", "NORAD_CAT_ID": 30548, "ELEMENT_SET_NO": 999, "REV_AT_EPOCH": 14063, "BSTAR": 0.003249128, "MEAN_MOTION_DOT": 8.037e-05, "MEAN_MOTION_DDOT": 0}, "tle": {"line1": "1 30548U 99025AKN 25344.50930868  .00008037  00000+0  32491-2 0  9990", "line2": "2 30548  99.6812 241.7363 0068756 341.7334 143.2043 14.26844945140638"}}, "geometry": {"type": "Point", "coordinates": [-98.1308636096817, -57.59255174985684]}}, {"type": "Feature", "properties": {"norad_id": 30549, "name": "FENGYUN 1C DEB", "group": "fengyun-1c-debris", "lat": -55.71194354425658, "lon": 121.54786450569715, "alt_km": 771.5430030921325, "timestamp": "2025-12-14T14:39:29.647724+00:00", "meta": {"OBJECT_NAME": "FENGYUN 1C DEB", "OBJECT_ID": "1999-025AKP", "EPOCH": "2025-12-03T07:39:14.923872", "MEAN_MOTION": 13.98584639, "ECCENTRICITY": 0.0288262, "INCLINATION": 98.4796, "RA_OF_ASC_NODE": 98.4482, "ARG_OF_PERICENTER": 283.4344, "MEAN_ANOMALY": 73.4847, "EPHEMERIS_TYPE": 0, "CLASSIFICATION_TYPE": "U", "NORAD_CAT_ID": 30549, "ELEMENT_SET_NO": 999, "REV_AT_EPOCH": 95162, "BSTAR": 0.0024216, "MEAN_MOTION_DOT": 4.917e-05, "MEAN_MOTION_DDOT": 0}, "tle": {"line1": "1 30549U 99025AKP 25337.31892273  .00004917  00000+0  24216-2 0  9998", "line2": "2 30549  98.4796  98.4482 0288262 283.4344  73.4847 13.98584639951629"}}, "geometry": {"type": "Point", "coordinates": [121.54786450569715, -55.71194354425658]}}, {"type": "Feature", "properties": {"norad_id": 30550, "name": "FENGYUN 1C DEB", "group": "fengyun-1c-debris", "lat": 53.47763229063638, "lon": 76.32706257756108, "alt_km": 974.106871822265, "timestamp": "2025-12-14T14:39:29.647734+00:00", "meta": {"OBJECT_NAME": "FENGYUN 1C DEB", "OBJECT_ID": "1999-025AKQ", "EPOCH": "2025-12-12T15:58:06.352320", "MEAN_MOTION": 14.02396955, "ECCENTRICITY": 0.01327932, "INCLINATION": 99.053, "RA_OF_ASC_NODE": 241.9619, "ARG_OF_PERICENTER": 297.5218, "MEAN_ANOMALY": 91.9516, "EPHEMERIS_TYPE": 0, "CLASSIFICATION_TYPE": "U", "NORAD_CAT_ID": 30550, "ELEMENT_SET_NO": 999, "REV_AT_EPOCH": 95394, "BSTAR": 0.0042392832, "MEAN_MOTION_DOT": 6.995e-05, "MEAN_MOTION_DDOT": 0}, "tle": {"line1": "1 30550U 99025AKQ 25346.66535130  .00006995  00000+0  42393-2 0  9998", "line2": "2 30550  99.0530 241.9619 0132793 297.5218  91.9516 14.02396955953947"}}, "geometry": {"type": "Point", "coordinates": [76.32706257756108, 53.47763229063638]}}, {"type": "Feature", "properties": {"norad_id": 30552, "name": "FENGYUN 1C DEB", "group": "fengyun-1c-debris", "lat": 51.81110785452827, "lon": -48.212842640726876, "alt_km": 710.2586089762799, "timestamp": "2025-12-14T14:39:29.647744+00:00", "meta": {"OBJECT_NAME": "FENGYUN 1C DEB", "OBJECT_ID": "1999-025AKS", "EPOCH": "2025-12-13T21:34:03.226944", "MEAN_MOTION": 14.54814627, "ECCENTRICITY": 0.0014907, "INCLINATION": 98.8342, "RA_OF_ASC_NODE": 119.632, "ARG_OF_PERICENTER": 248.9018, "MEAN_ANOMALY": 111.0584, "EPHEMERIS_TYPE": 0, "CLASSIFICATION_TYPE": "U", "NORAD_CAT_ID": 30552, "ELEMENT_SET_NO": 999, "REV_AT_EPOCH": 97669, "BSTAR": 0.0032009363, "MEAN_MOTION_DOT": 0.00013725, "MEAN_MOTION_DDOT": 0}, "tle": {"line1": "1 30552U 99025AKS 25347.89864846  .00013725  00000+0  32009-2 0  9997", "line2": "2 30552  98.8342 119.6320 0014907 248.9018 111.0584 14.54814627976695"}}, "geometry": {"type": "Point", "coordinates": [-48.212842640726876, 51.81110785452827]}}, {"type": "Feature", "properties": {"norad_id": 30553, "name": "FENGYUN 1C DEB", "group": "fengyun-1c-debris", "lat": -56.999478767289865, "lon": 98.06602963574765, "alt_km": 673.7530654357852, "timestamp": "2025-12-14T14:39:29.647754+00:00", "meta": {"OBJECT_NAME": "FENGYUN 1C DEB", "OBJECT_ID": "1999-025AKT", "EPOCH": "2025-12-13T19:21:03.834432", "MEAN_MOTION": 14.72343509, "ECCENTRICITY": 0.00205348, "INCLINATION": 99.1289, "RA_OF_ASC_NODE": 82.8278, "ARG_OF_PERICENTER": 148.0826, "MEAN_ANOMALY": 212.1626, "EPHEMERIS_TYPE": 0, "CLASSIFICATION_TYPE": "U", "NORAD_CAT_ID": 30553, "ELEMENT_SET_NO": 999, "REV_AT_EPOCH": 98489, "BSTAR": 0.0033919471, "MEAN_MOTION_DOT": 0.00021534, "MEAN_MOTION_DDOT": 0}, "tle": {"line1": "1 30553U 99025AKT 25347.80629438  .00021534  00000+0  33919-2 0  9993", "line2": "2 30553  99.1289  82.8278 0020534 148.0826 212.1626 14.72343509984890"}}, "geometry": {"type": "Point", "coordinates": [98.06602963574765, -56.999478767289865]}}, {"type": "Feature", "properties": {"norad_id": 30555, "name": "FENGYUN 1C DEB", "group": "fengyun-1c-debris", "lat": 75.16681658918232, "lon": -102.2836745481187, "alt_km": 844.919947477515, "timestamp": "2025-12-14T14:39:29.647764+00:00", "meta": {"OBJECT_NAME": "FENGYUN 1C DEB", "OBJECT_ID": "1999-025AKV", "EPOCH": "2025-12-13T22:07:35.959872", "MEAN_MOTION": 14.20815159, "ECCENTRICITY": 0.00426262, "INCLINATION": 98.7576, "RA_OF_ASC_NODE": 41.438, "ARG_OF_PERICENTER": 268.052, "MEAN_ANOMALY": 272.8055, "EPHEMERIS_TYPE": 0, "CLASSIFICATION_TYPE": "U", "NORAD_CAT_ID": 30555, "ELEMENT_SET_NO": 999, "REV_AT_EPOCH": 96952, "BSTAR": 0.0016386099, "MEAN_MOTION_DOT": 3.529e-05, "MEAN_MOTION_DDOT": 0}, "tle": {"line1": "1 30555U 99025AKV 25347.92194398  .00003529  00000+0  16386-2 0  9993", "line2": "2 30555  98.7576  41.4380 0042626 268.0520 272.8055 14.20815159969521"}}, "geometry": {"type": "Point", "coordinates": [-102.2836745481187, 75.16681658918232]}}, {"type": "Feature", "properties": {"norad_id": 30556, "name": "FENGYUN 1C DEB", "group": "fengyun-1c-debris", "lat": 62.012481392795564, "lon": 178.70568072247153, "alt_km": 904.0831702833075, "timestamp": "2025-12-14T14:39:29.647774+00:00", "meta": {"OBJECT_NAME": "FENGYUN 1C DEB", "OBJECT_ID": "1999-025AKW", "EPOCH": "2025-12-13T23:02:29.463936", "MEAN_MOTION": 14.01368518, "ECCENTRICITY": 0.00680282, "INCLINATION": 98.7817, "RA_OF_ASC_NODE": 341.1695, "ARG_OF_PERICENTER": 234.0611, "MEAN_ANOMALY": 202.371, "EPHEMERIS_TYPE": 0, "CLASSIFICATION_TYPE": "U", "NORAD_CAT_ID": 30556, "ELEMENT_SET_NO": 999, "REV_AT_EPOCH": 96274, "BSTAR": 0.00034242131, "MEAN_MOTION_DOT": 4.84e-06, "MEAN_MOTION_DDOT": 0}, "tle": {"line1": "1 30556U 99025AKW 25347.96006324  .00000484  00000+0  34242-3 0  9998", "line2": "2 30556  98.7817 341.1695 0068028 234.0611 202.3710 14.01368518962741"}}, "geometry": {"type": "Point", "coordinates": [178.70568072247153, 62.012481392795564]}}]}